$$SOE
2461302.500000000, A.D. 2026-Sep-19 00:00:00.0000, -4.517804736269526E+08, 1.140433949318874E+08, 8.214674691389889E+06,
2461309.500000000, A.D. 2026-Sep-26 00:00:00.0000, -4.562806113977531E+08, 1.048139529268807E+08, 8.476066213330358E+06,
2461316.500000000, A.D. 2026-Oct-03 00:00:00.0000, -4.605649956492462E+08, 9.553506992429358E+07, 8.733450328280304E+06,
2461323.500000000, A.D. 2026-Oct-10 00:00:00.0000, -4.646346536489246E+08, 8.621176144606416E+07, 8.986763211697306E+06,
2461330.500000000, A.D. 2026-Oct-17 00:00:00.0000, -4.684906989953488E+08, 7.684892758683828E+07, 9.235944971036315E+06,
2461337.500000000, A.D. 2026-Oct-24 00:00:00.0000, -4.721343259559676E+08, 6.745135417026001E+07, 9.480939493938576E+06,
2461344.500000000, A.D. 2026-Oct-31 00:00:00.0000, -4.755668039818826E+08, 5.802371390088113E+07, 9.721694277635317E+06,
2461351.500000000, A.D. 2026-Nov-07 00:00:00.0000, -4.787894720545055E+08, 4.857056756721130E+07, 9.958160214883288E+06,
2461358.500000000, A.D. 2026-Nov-14 00:00:00.0000, -4.818037326564670E+08, 3.909636616595820E+07, 1.019029139089263E+07,
2461365.500000000, A.D. 2026-Nov-21 00:00:00.0000, -4.846110471715592E+08, 2.960545461283711E+07, 1.041804511346096E+07,
2461372.500000000, A.D. 2026-Nov-28 00:00:00.0000, -4.872129337058034E+08, 2.010207401675803E+07, 1.064138202230682E+07,
2461379.500000000, A.D. 2026-Dec-05 00:00:00.0000, -4.896109637035969E+08, 1.059036184829418E+07, 1.086026589237504E+07,
2461386.500000000, A.D. 2026-Dec-12 00:00:00.0000, -4.918067571849220E+08, 1.074353101528264E+06, 1.107466337068051E+07,
2461393.500000000, A.D. 2026-Dec-19 00:00:00.0000, -4.938019784820051E+08, -8.442017556683468E+06, 1.128454382057854E+07,
2461400.500000000, A.D. 2026-Dec-26 00:00:00.0000, -4.955983326108221E+08, -1.795491352942830E+07, 1.148987921571813E+07,
2461407.500000000, A.D. 2027-Jan-02 00:00:00.0000, -4.971975619950827E+08, -2.746059412495657E+07, 1.169064404291236E+07,
2461414.500000000, A.D. 2027-Jan-09 00:00:00.0000, -4.986014434189619E+08, -3.695541247268105E+07, 1.188681520497443E+07,
2461421.500000000, A.D. 2027-Jan-16 00:00:00.0000, -4.998117851664825E+08, -4.643581351876165E+07, 1.207837192107093E+07,
2461428.500000000, A.D. 2027-Jan-23 00:00:00.0000, -5.008304242948515E+08, -5.589833214770438E+07, 1.226529561714124E+07,
2461435.500000000, A.D. 2027-Jan-30 00:00:00.0000, -5.016592238471097E+08, -6.533959148388030E+07, 1.244756978520102E+07,
2461442.500000000, A.D. 2027-Feb-06 00:00:00.0000, -5.023000695721381E+08, -7.475630103876004E+07, 1.262517980022922E+07,
2461449.500000000, A.D. 2027-Feb-13 00:00:00.0000, -5.027548666051434E+08, -8.414525349014658E+07, 1.279811283631549E+07,
2461456.500000000, A.D. 2027-Feb-20 00:00:00.0000, -5.030255384663842E+08, -9.350332089068724E+07, 1.296635803389592E+07,
2461463.500000000, A.D. 2027-Feb-27 00:00:00.0000, -5.031140269781470E+08, -1.028274535249093E+08, 1.312990652706328E+07,
2461470.500000000, A.D. 2027-Mar-06 00:00:00.0000, -5.030222900778152E+08, -1.121146794955999E+08, 1.328875121102874E+07,
2461477.500000000, A.D. 2027-Mar-13 00:00:00.0000, -5.027522991212896E+08, -1.213621029923109E+08, 1.344288656378486E+07,
2461484.500000000, A.D. 2027-Mar-20 00:00:00.0000, -5.023060367997452E+08, -1.305669020791137E+08, 1.359230855705143E+07,
2461491.500000000, A.D. 2027-Mar-27 00:00:00.0000, -5.016854954618958E+08, -1.397263265528849E+08, 1.373701459282592E+07,
2461498.500000000, A.D. 2027-Apr-03 00:00:00.0000, -5.008926756331344E+08, -1.488376959216127E+08, 1.387700344281118E+07,
2461505.500000000, A.D. 2027-Apr-10 00:00:00.0000, -4.999295846643282E+08, -1.578983974811120E+08, 1.401227518682577E+07,
2461512.500000000, A.D. 2027-Apr-17 00:00:00.0000, -4.987982354822181E+08, -1.669058845059077E+08, 1.414283114686269E+07,
2461519.500000000, A.D. 2027-Apr-24 00:00:00.0000, -4.975006453565934E+08, -1.758576746179343E+08, 1.426867380433112E+07,
2461526.500000000, A.D. 2027-May-01 00:00:00.0000, -4.960388343794801E+08, -1.847513483066063E+08, 1.438980667518283E+07,
2461533.500000000, A.D. 2027-May-08 00:00:00.0000, -4.944148233441864E+08, -1.935845468529501E+08, 1.450623417582969E+07,
2461540.500000000, A.D. 2027-May-15 00:00:00.0000, -4.926306325164728E+08, -2.023549687052589E+08, 1.461796169499154E+07,
2461547.500000000, A.D. 2027-May-22 00:00:00.0000, -4.906882828577475E+08, -2.110603668989411E+08, 1.472499580301859E+07,
2461554.500000000, A.D. 2027-May-29 00:00:00.0000, -4.885897963415439E+08, -2.196985489895684E+08, 1.482734417090128E+07,
2461561.500000000, A.D. 2027-Jun-05 00:00:00.0000, -4.863371944752736E+08, -2.282673763669513E+08, 1.492501537385134E+07,
2461568.500000000, A.D. 2027-Jun-12 00:00:00.0000, -4.839324970305224E+08, -2.367647625177698E+08, 1.501801879892667E+07,
2461575.500000000, A.D. 2027-Jun-19 00:00:00.0000, -4.813777213088100E+08, -2.451886711717022E+08, 1.510636461066352E+07,
2461582.500000000, A.D. 2027-Jun-26 00:00:00.0000, -4.786748816600650E+08, -2.535371145925571E+08, 1.519006372778282E+07,
2461589.500000000, A.D. 2027-Jul-03 00:00:00.0000, -4.758259891188360E+08, -2.618081520060602E+08, 1.526912779965810E+07,
2461596.500000000, A.D. 2027-Jul-10 00:00:00.0000, -4.728330511186253E+08, -2.699998881552337E+08, 1.534356918005618E+07,
2461603.500000000, A.D. 2027-Jul-17 00:00:00.0000, -4.696980712452124E+08, -2.781104720217870E+08, 1.541340089183660E+07,
2461610.500000000, A.D. 2027-Jul-24 00:00:00.0000, -4.664230488698481E+08, -2.861380957758539E+08, 1.547863656331515E+07,
2461617.500000000, A.D. 2027-Jul-31 00:00:00.0000, -4.630099782483248E+08, -2.940809937180491E+08, 1.553929031797338E+07,
2461624.500000000, A.D. 2027-Aug-07 00:00:00.0000, -4.594608472840713E+08, -3.019374400614844E+08, 1.559537673016317E+07,
2461631.500000000, A.D. 2027-Aug-14 00:00:00.0000, -4.557776382537392E+08, -3.097057458065563E+08, 1.564691103716889E+07,
2461638.500000000, A.D. 2027-Aug-21 00:00:00.0000, -4.519623298750500E+08, -3.173842580727509E+08, 1.569390927592233E+07,
2461645.500000000, A.D. 2027-Aug-28 00:00:00.0000, -4.480168972847363E+08, -3.249713606841865E+08, 1.573638812796949E+07,
2461652.500000000, A.D. 2027-Sep-04 00:00:00.0000, -4.439433111063479E+08, -3.324654735056379E+08, 1.577436478542116E+07,
2461659.500000000, A.D. 2027-Sep-11 00:00:00.0000, -4.397435370012560E+08, -3.398650511891844E+08, 1.580785691158564E+07,
2461666.500000000, A.D. 2027-Sep-18 00:00:00.0000, -4.354195355677513E+08, -3.471685819806994E+08, 1.583688263061643E+07,
2461673.500000000, A.D. 2027-Sep-25 00:00:00.0000, -4.309732623577737E+08, -3.543745866627966E+08, 1.586146051851046E+07,
2461680.500000000, A.D. 2027-Oct-02 00:00:00.0000, -4.264066679346732E+08, -3.614816176053427E+08, 1.588160959051777E+07,
2461687.500000000, A.D. 2027-Oct-09 00:00:00.0000, -4.217216979477185E+08, -3.684882579265471E+08, 1.589734928224120E+07,
2461694.500000000, A.D. 2027-Oct-16 00:00:00.0000, -4.169202931581523E+08, -3.753931208182533E+08, 1.590869941386136E+07,
2461701.500000000, A.D. 2027-Oct-23 00:00:00.0000, -4.120043891550681E+08, -3.821948490403759E+08, 1.591568011292927E+07,
2461708.500000000, A.D. 2027-Oct-30 00:00:00.0000, -4.069759153850551E+08, -3.888921139737200E+08, 1.591831171104214E+07,
2461715.500000000, A.D. 2027-Nov-06 00:00:00.0000, -4.018367946580583E+08, -3.954836131025088E+08, 1.591661481316198E+07,
2461722.500000000, A.D. 2027-Nov-13 00:00:00.0000, -3.965889451139982E+08, -4.019680680022998E+08, 1.591061055186945E+07,
2461729.500000000, A.D. 2027-Nov-20 00:00:00.0000, -3.912342817479112E+08, -4.083442250189746E+08, 1.590032058172154E+07,
2461736.500000000, A.D. 2027-Nov-27 00:00:00.0000, -3.857747158760222E+08, -4.146108556737771E+08, 1.588576690769514E+07,
2461743.500000000, A.D. 2027-Dec-04 00:00:00.0000, -3.802121545657386E+08, -4.207667558791870E+08, 1.586697180806884E+07,
2461750.500000000, A.D. 2027-Dec-11 00:00:00.0000, -3.745485005790146E+08, -4.268107449283022E+08, 1.584395782348233E+07,
2461757.500000000, A.D. 2027-Dec-18 00:00:00.0000, -3.687856525529262E+08, -4.327416645959400E+08, 1.581674775925097E+07,
2461764.500000000, A.D. 2027-Dec-25 00:00:00.0000, -3.629255052645417E+08, -4.385583783530726E+08, 1.578536468684578E+07,
2461771.500000000, A.D. 2028-Jan-01 00:00:00.0000, -3.569699499380312E+08, -4.442597706795775E+08, 1.574983194201005E+07,
$$EOE